{
  "type": "FeatureCollection",
  "features": [
    {
      "type": "Feature",
      "properties": {
        "norad_id": 41866,
        "name": "GOES 16",
        "group": "weather",
        "lat": 0.05012596397267804,
        "lon": -161.71499721979416,
        "alt_km": 35779.81152051634,
        "timestamp": "2025-12-10T14:53:36.768719+00:00",
        "meta_object_name": "GOES 16",
        "meta_object_id": "2016-071A",
        "meta_epoch": "2025-12-10T04:31:38.803584",
        "meta_mean_motion": 1.00270933,
        "meta_eccentricity": 0.0003362,
        "meta_inclination": 0.0644,
        "meta_ra_of_asc_node": 105.0893,
        "meta_arg_of_pericenter": 156.0186,
        "meta_mean_anomaly": 141.2987,
        "meta_ephemeris_type": 0,
        "meta_classification_type": "U",
        "meta_norad_cat_id": 41866,
        "meta_element_set_no": 999,
        "meta_rev_at_epoch": 3320,
        "meta_bstar": 0,
        "meta_mean_motion_dot": -8.8e-07,
        "meta_mean_motion_ddot": 0,
        "tle_line1": "1 41866U 16071A   25344.18864356 -.00000088  00000+0  00000+0 0  9994",
        "tle_line2": "2 41866   0.0644 105.0893 0003362 156.0186 141.2987  1.00270933 33203"
      },
      "geometry": {
        "type": "Point",
        "coordinates": [
          -161.71499721979416,
          0.05012596397267804
        ]
      }
    },
    {
      "type": "Feature",
      "properties": {
        "norad_id": 41882,
        "name": "FENGYUN 4A",
        "group": "weather",
        "lat": -0.47604028179318847,
        "lon": 66.84170382943266,
        "alt_km": 35804.56342087059,
        "timestamp": "2025-12-10T14:53:36.768730+00:00",
        "meta_object_name": "FENGYUN 4A",
        "meta_object_id": "2016-077A",
        "meta_epoch": "2025-12-09T21:00:35.659872",
        "meta_mean_motion": 1.00275053,
        "meta_eccentricity": 0.00048891,
        "meta_inclination": 1.8422,
        "meta_ra_of_asc_node": 82.422,
        "meta_arg_of_pericenter": 142.7758,
        "meta_mean_anomaly": 292.6612,
        "meta_ephemeris_type": 0,
        "meta_classification_type": "U",
        "meta_norad_cat_id": 41882,
        "meta_element_set_no": 999,
        "meta_rev_at_epoch": 3303,
        "meta_bstar": 0,
        "meta_mean_motion_dot": -3.54e-06,
        "meta_mean_motion_ddot": 0,
        "tle_line1": "1 41882U 16077A   25343.87541273 -.00000354  00000+0  00000+0 0  9999",
        "tle_line2": "2 41882   1.8422  82.4220 0004889 142.7758 292.6612  1.00275053 33033"
      },
      "geometry": {
        "type": "Point",
        "coordinates": [
          66.84170382943266,
          -0.47604028179318847
        ]
      }
    },
    {
      "type": "Feature",
      "properties": {
        "norad_id": 41884,
        "name": "CYGFM05",
        "group": "weather",
        "lat": 28.250420856575253,
        "lon": 111.24456746874988,
        "alt_km": 420.70675715424113,
        "timestamp": "2025-12-10T14:53:36.768739+00:00",
        "meta_object_name": "CYGFM05",
        "meta_object_id": "2016-078A",
        "meta_epoch": "2025-12-10T06:54:44.306784",
        "meta_mean_motion": 15.47492979,
        "meta_eccentricity": 0.00098051,
        "meta_inclination": 34.9597,
        "meta_ra_of_asc_node": 63.1447,
        "meta_arg_of_pericenter": 160.7889,
        "meta_mean_anomaly": 199.3204,
        "meta_ephemeris_type": 0,
        "meta_classification_type": "U",
        "meta_norad_cat_id": 41884,
        "meta_element_set_no": 999,
        "meta_rev_at_epoch": 49938,
        "meta_bstar": 0.00053168978,
        "meta_mean_motion_dot": 0.00028247,
        "meta_mean_motion_ddot": 0,
        "tle_line1": "1 41884U 16078A   25344.28801281  .00028247  00000+0  53169-3 0  9994",
        "tle_line2": "2 41884  34.9597  63.1447 0009805 160.7889 199.3204 15.47492979499388"
      },
      "geometry": {
        "type": "Point",
        "coordinates": [
          111.24456746874988,
          28.250420856575253
        ]
      }
    },
    {
      "type": "Feature",
      "properties": {
        "norad_id": 41885,
        "name": "CYGFM04",
        "group": "weather",
        "lat": -34.791074079686254,
        "lon": -48.66490010491632,
        "alt_km": 417.39880292849284,
        "timestamp": "2025-12-10T14:53:36.768749+00:00",
        "meta_object_name": "CYGFM04",
        "meta_object_id": "2016-078B",
        "meta_epoch": "2025-12-10T05:59:15.803808",
        "meta_mean_motion": 15.50193243,
        "meta_eccentricity": 0.00091864,
        "meta_inclination": 34.9354,
        "meta_ra_of_asc_node": 38.2446,
        "meta_arg_of_pericenter": 188.3034,
        "meta_mean_anomaly": 171.7537,
        "meta_ephemeris_type": 0,
        "meta_classification_type": "U",
        "meta_norad_cat_id": 41885,
        "meta_element_set_no": 999,
        "meta_rev_at_epoch": 49955,
        "meta_bstar": 0.0005195348,
        "meta_mean_motion_dot": 0.0003036,
        "meta_mean_motion_ddot": 0,
        "tle_line1": "1 41885U 16078B   25344.24948847  .00030360  00000+0  51953-3 0  9999",
        "tle_line2": "2 41885  34.9354  38.2446 0009186 188.3034 171.7537 15.50193243499550"
      },
      "geometry": {
        "type": "Point",
        "coordinates": [
          -48.66490010491632,
          -34.791074079686254
        ]
      }
    },
    {
      "type": "Feature",
      "properties": {
        "norad_id": 41886,
        "name": "CYGFM02",
        "group": "weather",
        "lat": -34.621922294823925,
        "lon": -47.24126955922644,
        "alt_km": 413.63119061397265,
        "timestamp": "2025-12-10T14:53:36.768759+00:00",
        "meta_object_name": "CYGFM02",
        "meta_object_id": "2016-078C",
        "meta_epoch": "2025-12-10T05:59:05.319168",
        "meta_mean_motion": 15.51561779,
        "meta_eccentricity": 0.00108772,
        "meta_inclination": 34.9443,
        "meta_ra_of_asc_node": 36.6037,
        "meta_arg_of_pericenter": 187.7832,
        "meta_mean_anomaly": 172.2723,
        "meta_ephemeris_type": 0,
        "meta_classification_type": "U",
        "meta_norad_cat_id": 41886,
        "meta_element_set_no": 999,
        "meta_rev_at_epoch": 49968,
        "meta_bstar": 0.00053403478,
        "meta_mean_motion_dot": 0.00032809,
        "meta_mean_motion_ddot": 0,
        "tle_line1": "1 41886U 16078C   25344.24936712  .00032809  00000+0  53403-3 0  9990",
        "tle_line2": "2 41886  34.9443  36.6037 0010877 187.7832 172.2723 15.51561779499687"
      },
      "geometry": {
        "type": "Point",
        "coordinates": [
          -47.24126955922644,
          -34.621922294823925
        ]
      }
    },
    {
      "type": "Feature",
      "properties": {
        "norad_id": 41887,
        "name": "CYGFM01",
        "group": "weather",
        "lat": 34.73473928253072,
        "lon": 160.1236578126691,
        "alt_km": 412.737562620232,
        "timestamp": "2025-12-10T14:53:36.768768+00:00",
        "meta_object_name": "CYGFM01",
        "meta_object_id": "2016-078D",
        "meta_epoch": "2025-12-10T06:44:39.546528",
        "meta_mean_motion": 15.48066587,
        "meta_eccentricity": 0.00093697,
        "meta_inclination": 34.9428,
        "meta_ra_of_asc_node": 65.5571,
        "meta_arg_of_pericenter": 152.5414,
        "meta_mean_anomaly": 207.5804,
        "meta_ephemeris_type": 0,
        "meta_classification_type": "U",
        "meta_norad_cat_id": 41887,
        "meta_element_set_no": 999,
        "meta_rev_at_epoch": 49932,
        "meta_bstar": 0.00052319396,
        "meta_mean_motion_dot": 0.00028355,
        "meta_mean_motion_ddot": 0,
        "tle_line1": "1 41887U 16078D   25344.28101327  .00028355  00000+0  52319-3 0  9997",
        "tle_line2": "2 41887  34.9428  65.5571 0009369 152.5414 207.5804 15.48066587499321"
      },
      "geometry": {
        "type": "Point",
        "coordinates": [
          160.1236578126691,
          34.73473928253072
        ]
      }
    },
    {
      "type": "Feature",
      "properties": {
        "norad_id": 41888,
        "name": "CYGFM08",
        "group": "weather",
        "lat": 23.96227059265605,
        "lon": -173.17364912249235,
        "alt_km": 408.72542974759654,
        "timestamp": "2025-12-10T14:53:36.768778+00:00",
        "meta_object_name": "CYGFM08",
        "meta_object_id": "2016-078E",
        "meta_epoch": "2025-12-10T06:34:55.419456",
        "meta_mean_motion": 15.49264297,
        "meta_eccentricity": 0.00112528,
        "meta_inclination": 34.9462,
        "meta_ra_of_asc_node": 48.6221,
        "meta_arg_of_pericenter": 176.4385,
        "meta_mean_anomaly": 183.6419,
        "meta_ephemeris_type": 0,
        "meta_classification_type": "U",
        "meta_norad_cat_id": 41888,
        "meta_element_set_no": 999,
        "meta_rev_at_epoch": 49955,
        "meta_bstar": 0.000519636,
        "meta_mean_motion_dot": 0.00029402,
        "meta_mean_motion_ddot": 0,
        "tle_line1": "1 41888U 16078E   25344.27425254  .00029402  00000+0  51964-3 0  9994",
        "tle_line2": "2 41888  34.9462  48.6221 0011252 176.4385 183.6419 15.49264297499550"
      },
      "geometry": {
        "type": "Point",
        "coordinates": [
          -173.17364912249235,
          23.96227059265605
        ]
      }
    }
  ]
}